YAOGAN-36 04C           
1 54750U 22171E   26068.78871400  .00016196  00000+0  54592-3 0  9991
2 54750  34.9797  96.6578 0006685 275.3761  84.6192 15.29852307180246
STARLINK-32314          
1 61709U 24196C   26068.78452004  .00001120  00000+0  49949-4 0  9999
2 61709  53.1609 100.7185 0001200  95.4474 264.6664 15.30195605 77178
