[{"OBJECT_NAME":"YAOGAN-36 04C","OBJECT_ID":"2022-171E","EPOCH":"2026-03-09T18:55:44.889600","MEAN_MOTION":15.29852307,"ECCENTRICITY":0.00066848,"INCLINATION":34.9797,"RA_OF_ASC_NODE":96.6578,"ARG_OF_PERICENTER":275.3761,"MEAN_ANOMALY":84.6192,"EPHEMERIS_TYPE":0,"CLASSIFICATION_TYPE":"U","NORAD_CAT_ID":54750,"ELEMENT_SET_NO":999,"REV_AT_EPOCH":18024,"BSTAR":0.00054591902,"MEAN_MOTION_DOT":0.00016196,"MEAN_MOTION_DDOT":0},{"OBJECT_NAME":"STARLINK-32314","OBJECT_ID":"2024-196C","EPOCH":"2026-03-09T18:49:42.531456","MEAN_MOTION":15.30195605,"ECCENTRICITY":0.00012004,"INCLINATION":53.1609,"RA_OF_ASC_NODE":100.7185,"ARG_OF_PERICENTER":95.4474,"MEAN_ANOMALY":264.6664,"EPHEMERIS_TYPE":0,"CLASSIFICATION_TYPE":"U","NORAD_CAT_ID":61709,"ELEMENT_SET_NO":999,"REV_AT_EPOCH":7717,"BSTAR":4.9948776e-5,"MEAN_MOTION_DOT":1.12e-5,"MEAN_MOTION_DDOT":0}]
